BEESAT-4                
1 41619U 16040W   21077.73130310  .00002058  00000-0  85058-4 0  9992
2 41619  97.2813 136.3337 0009090 295.5597  64.4701 15.25073688251183
CAS-2T & KS-1Q          
1 41847U 16066G   21078.37988126  .00000154  00000-0  32560-4 0  9995
2 41847  98.6133 137.0889 0366295 129.1341 234.3013 14.38160726228932
NAYIF-1 (EO-88)         
1 42017U 17008BX  21077.72735804  .00002380  00000-0  90611-4 0  9997
2 42017  97.3248 146.9397 0007659  76.5633 283.6460 15.27685311227408
ZHUHAI-1 02 (CAS-4B)    
1 42759U 17034B   21078.15377086  .00000560  00000-0  47145-4 0  9993
2 42759  43.0192 317.4857 0010532 314.9334 183.5804 15.10117412207495
ZHUHAI-1 01 (CAS-4A)    
1 42761U 17034D   21078.14939670  .00000577  00000-0  48025-4 0  9994
2 42761  43.0194 316.6242 0010987 317.0313 179.7766 15.10198830207491
MAX VALIER SAT          
1 42778U 17036P   21078.12294170  .00001355  00000-0  59860-4 0  9995
2 42778  97.2675 129.6523 0013398 130.3330 229.9080 15.23313657207534
RADFXSAT (FOX-1B)       
1 43017U 17073E   21078.17832958  .00000610  00000-0  52978-4 0  9996
2 43017  97.7134 345.7266 0254226 234.7059 123.0138 14.79388320179776
FOX-1D (AO-92)          
1 43137U 18004AC  21078.18303060  .00001730  00000-0  72320-4 0  9999
2 43137  97.4139 153.1262 0009428 159.7842 200.3771 15.24928732176896
DIWATA-2B               
1 43678U 18084H   21078.43602617  .00000253  00000-0  30888-4 0  9997
2 43678  97.9087 203.3293 0010044 357.1409   2.9754 14.91720021130019
ES'HAIL 2               
1 43700U 18090A   21078.26160368  .00000144  00000-0  00000+0 0  9990
2 43700   0.0195 158.6238 0002259 230.9618 267.3915  1.00273527  8706
FOX-1CLIFF (AO-95)      
1 43770U 18099N   21078.17674995  .00000032  00000-0  81164-5 0  9994
2 43770  97.6733 150.3275 0014514   5.4962 354.6415 14.95230517124969
ITASAT 1                
1 43786U 18099AE  21078.18094518 -.00000021  00000-0  33126-5 0  9993
2 43786  97.6750 150.9468 0014989 358.3452   1.7717 14.95536796124991
JY1SAT (JO-97)          
1 43803U 18099AX  21078.15913155  .00000533  00000-0  52824-4 0  9999
2 43803  97.6714 150.6890 0014907 359.2017   0.9178 14.95766440124997
UWE-4                   
1 43880U 18111E   21077.73537243  .00000397  00000-0  39750-4 0  9993
2 43880  97.6918 346.9958 0013283  51.6507 308.5906 14.96761739121514
PSAT2 (NO-104)          
1 44354U 19036R   21077.89926978  .00021363  00000-0  29219-3 0  9995
2 44354  28.5295   9.7146 0336237  15.9672 345.1234 15.10713554 95259
BRICSAT2 (NO-103)       
1 44355U 19036S   21077.82233298  .00048587  00000-0  57355-3 0  9994
2 44355  28.5269 338.5176 0286781  66.6551 296.3947 15.23643460 95568
JAISAT-1                
1 44419U 19038F   21078.13665826  .00001381  00000-0  80644-4 0  9997
2 44419  97.5784  43.2475 0019473 263.5855  96.3158 15.13491175 94133
DUCHIFAT-3              
1 44854U 19089C   21078.56221486  .00000730  00000-0  64949-4 0  9990
2 44854  36.9667 272.1901 0006578 132.1523 227.9784 14.99378502 69607
RS-44 & BREEZE-KM R/B   
1 44909U 19096E   21077.77877225  .00000030  00000-0  81705-4 0  9991
2 44909  82.5253 173.0560 0216367 305.2739  52.8288 12.79708851 57248
ORBITAL FACTORY 2 (OF-2)
1 45113U 19071C   21078.39271926  .00002504  00000-0  83516-4 0  9997
2 45113  51.6410 113.9653 0012132 330.9929  29.0378 15.35049376 63332
HUSKYSAT-1 (HO-107)     
1 45119U 19071J   21077.69105443  .00002423  00000-0  80999-4 0  9997
2 45119  51.6414 116.7781 0011446 324.9740  35.0489 15.35131133 63227
BY70-2                  
1 45857U 20042B   21078.46960558  .00001410  00000-0  20829-3 0  9998
2 45857  97.9888 155.1530 0012593 139.7797 220.4351 14.76774906 38260
SALSAT                  
1 46495U 20068K   21077.87766787  .00000459  00000-0  38228-4 0  9992
2 46495  97.6876  15.9547 0018080  25.3497 334.8610 15.03383764 25722
BY70-3                  
1 46839U 20079N   21078.45115947  .00003730  00000-0  11918-3 0  9998
2 46839  97.2474 154.1026 0007617 156.8186 258.3583 15.33047461 20415
RADFXSAT-2 (AO-109)     
1 47311U 21002C   21078.26276017  .00001680  00000-0  86004-4 0  9997
2 47311  60.6851 268.7397 0021690 352.9125   7.1652 15.21358242  9150
UVSQ-SAT                
1 47438U 21006AB  21077.71178970  .00001125  00000-0  67405-4 0  9997
2 47438  97.4984 140.5212 0014078  56.1841 304.0728 15.12926337  8336
